{
  "type": "FeatureCollection",
  "features": [
    {
      "type": "Feature",
      "properties": {
        "norad_id": 35771,
        "name": "COSMOS 2251 DEB",
        "group": "cosmos-2251-debris",
        "lat": -72.78861884100398,
        "lon": -176.82491341975108,
        "alt_km": 710.8808629439618,
        "timestamp": "2025-12-20T11:30:28.772650+00:00",
        "meta_object_name": "COSMOS 2251 DEB",
        "meta_object_id": "1993-036ARR",
        "meta_epoch": "2025-12-15T14:45:16.238592",
        "meta_mean_motion": 14.13430046,
        "meta_eccentricity": 0.02280549,
        "meta_inclination": 74.1561,
        "meta_ra_of_asc_node": 305.27,
        "meta_arg_of_pericenter": 242.9998,
        "meta_mean_anomaly": 114.7698,
        "meta_ephemeris_type": 0,
        "meta_classification_type": "U",
        "meta_norad_cat_id": 35771,
        "meta_element_set_no": 999,
        "meta_rev_at_epoch": 82901,
        "meta_bstar": 0.0026764238,
        "meta_mean_motion_dot": 6.427e-05,
        "meta_mean_motion_ddot": 0,
        "tle_line1": "1 35771U 93036ARR 25349.61477128  .00006427  00000+0  26764-2 0  9998",
        "tle_line2": "2 35771  74.1561 305.2700 0228054 242.9998 114.7698 14.13430046829012"
      },
      "geometry": {
        "type": "Point",
        "coordinates": [
          -176.82491341975108,
          -72.78861884100398
        ]
      }
    },
    {
      "type": "Feature",
      "properties": {
        "norad_id": 35773,
        "name": "COSMOS 2251 DEB",
        "group": "cosmos-2251-debris",
        "lat": 46.85927852214877,
        "lon": -16.204851581117307,
        "alt_km": 673.1277693833454,
        "timestamp": "2025-12-20T11:30:28.772660+00:00",
        "meta_object_name": "COSMOS 2251 DEB",
        "meta_object_id": "1993-036ART",
        "meta_epoch": "2025-12-19T22:08:43.673280",
        "meta_mean_motion": 14.62105027,
        "meta_eccentricity": 0.0045274,
        "meta_inclination": 74.0078,
        "meta_ra_of_asc_node": 327.0423,
        "meta_arg_of_pericenter": 124.9844,
        "meta_mean_anomaly": 235.5587,
        "meta_ephemeris_type": 0,
        "meta_classification_type": "U",
        "meta_norad_cat_id": 35773,
        "meta_element_set_no": 999,
        "meta_rev_at_epoch": 86944,
        "meta_bstar": 0.00038471,
        "meta_mean_motion_dot": 1.931e-05,
        "meta_mean_motion_ddot": 0,
        "tle_line1": "1 35773U 93036ART 25353.92272770  .00001931  00000+0  38471-3 0  9999",
        "tle_line2": "2 35773  74.0078 327.0423 0045274 124.9844 235.5587 14.62105027869442"
      },
      "geometry": {
        "type": "Point",
        "coordinates": [
          -16.204851581117307,
          46.85927852214877
        ]
      }
    },
    {
      "type": "Feature",
      "properties": {
        "norad_id": 35777,
        "name": "COSMOS 2251 DEB",
        "group": "cosmos-2251-debris",
        "lat": 73.28757715332114,
        "lon": 26.31732759888072,
        "alt_km": 1244.0639318756494,
        "timestamp": "2025-12-20T11:30:28.772670+00:00",
        "meta_object_name": "COSMOS 2251 DEB",
        "meta_object_id": "1993-036ARX",
        "meta_epoch": "2025-12-18T07:54:51.389280",
        "meta_mean_motion": 13.41305779,
        "meta_eccentricity": 0.04520138,
        "meta_inclination": 73.7704,
        "meta_ra_of_asc_node": 313.8075,
        "meta_arg_of_pericenter": 207.8246,
        "meta_mean_anomaly": 306.1255,
        "meta_ephemeris_type": 0,
        "meta_classification_type": "U",
        "meta_norad_cat_id": 35777,
        "meta_element_set_no": 999,
        "meta_rev_at_epoch": 79759,
        "meta_bstar": 0.00020170503,
        "meta_mean_motion_dot": 1.82e-06,
        "meta_mean_motion_ddot": 0,
        "tle_line1": "1 35777U 93036ARX 25352.32976145  .00000182  00000+0  20171-3 0  9998",
        "tle_line2": "2 35777  73.7704 313.8075 0452013 207.8246 306.1255 13.41305779797599"
      },
      "geometry": {
        "type": "Point",
        "coordinates": [
          26.31732759888072,
          73.28757715332114
        ]
      }
    },
    {
      "type": "Feature",
      "properties": {
        "norad_id": 35784,
        "name": "COSMOS 2251 DEB",
        "group": "cosmos-2251-debris",
        "lat": 74.02981493875956,
        "lon": 165.67181365193645,
        "alt_km": 730.1775313882163,
        "timestamp": "2025-12-20T11:30:28.772681+00:00",
        "meta_object_name": "COSMOS 2251 DEB",
        "meta_object_id": "1993-036ASE",
        "meta_epoch": "2025-12-17T23:28:57.859680",
        "meta_mean_motion": 14.50055355,
        "meta_eccentricity": 0.00415956,
        "meta_inclination": 74.0403,
        "meta_ra_of_asc_node": 79.8718,
        "meta_arg_of_pericenter": 209.9484,
        "meta_mean_anomaly": 149.9297,
        "meta_ephemeris_type": 0,
        "meta_classification_type": "U",
        "meta_norad_cat_id": 35784,
        "meta_element_set_no": 999,
        "meta_rev_at_epoch": 65782,
        "meta_bstar": 0.00024795111,
        "meta_mean_motion_dot": 9.44e-06,
        "meta_mean_motion_ddot": 0,
        "tle_line1": "1 35784U 93036ASE 25351.97844745  .00000944  00000+0  24795-3 0  9998",
        "tle_line2": "2 35784  74.0403  79.8718 0041595 209.9484 149.9297 14.50055355657829"
      },
      "geometry": {
        "type": "Point",
        "coordinates": [
          165.67181365193645,
          74.02981493875956
        ]
      }
    },
    {
      "type": "Feature",
      "properties": {
        "norad_id": 35786,
        "name": "COSMOS 2251 DEB",
        "group": "cosmos-2251-debris",
        "lat": 71.11887474828258,
        "lon": 151.88200911132105,
        "alt_km": 652.6606562776342,
        "timestamp": "2025-12-20T11:30:28.772691+00:00",
        "meta_object_name": "COSMOS 2251 DEB",
        "meta_object_id": "1993-036ASG",
        "meta_epoch": "2025-12-19T18:40:39.541152",
        "meta_mean_motion": 14.66292121,
        "meta_eccentricity": 0.00334702,
        "meta_inclination": 74.0141,
        "meta_ra_of_asc_node": 30.1848,
        "meta_arg_of_pericenter": 158.321,
        "meta_mean_anomaly": 201.9385,
        "meta_ephemeris_type": 0,
        "meta_classification_type": "U",
        "meta_norad_cat_id": 35786,
        "meta_element_set_no": 999,
        "meta_rev_at_epoch": 73511,
        "meta_bstar": 0.00056402109,
        "meta_mean_motion_dot": 3.106e-05,
        "meta_mean_motion_ddot": 0,
        "tle_line1": "1 35786U 93036ASG 25353.77823543  .00003106  00000+0  56402-3 0  9996",
        "tle_line2": "2 35786  74.0141  30.1848 0033470 158.3210 201.9385 14.66292121735118"
      },
      "geometry": {
        "type": "Point",
        "coordinates": [
          151.88200911132105,
          71.11887474828258
        ]
      }
    },
    {
      "type": "Feature",
      "properties": {
        "norad_id": 35789,
        "name": "COSMOS 2251 DEB",
        "group": "cosmos-2251-debris",
        "lat": 29.33578321234684,
        "lon": -80.57893301540854,
        "alt_km": 738.6745579176923,
        "timestamp": "2025-12-20T11:30:28.772701+00:00",
        "meta_object_name": "COSMOS 2251 DEB",
        "meta_object_id": "1993-036ASK",
        "meta_epoch": "2025-12-17T01:26:23.250912",
        "meta_mean_motion": 14.35989528,
        "meta_eccentricity": 0.00475408,
        "meta_inclination": 74.0381,
        "meta_ra_of_asc_node": 276.4392,
        "meta_arg_of_pericenter": 14.7858,
        "meta_mean_anomaly": 345.4672,
        "meta_ephemeris_type": 0,
        "meta_classification_type": "U",
        "meta_norad_cat_id": 35789,
        "meta_element_set_no": 999,
        "meta_rev_at_epoch": 61289,
        "meta_bstar": 0.00011853028,
        "meta_mean_motion_dot": 3.23e-06,
        "meta_mean_motion_ddot": 0,
        "tle_line1": "1 35789U 93036ASK 25351.05999133  .00000323  00000+0  11853-3 0  9996",
        "tle_line2": "2 35789  74.0381 276.4392 0047540  14.7858 345.4672 14.35989528612894"
      },
      "geometry": {
        "type": "Point",
        "coordinates": [
          -80.57893301540854,
          29.33578321234684
        ]
      }
    },
    {
      "type": "Feature",
      "properties": {
        "norad_id": 35793,
        "name": "COSMOS 2251 DEB",
        "group": "cosmos-2251-debris",
        "lat": -13.751603810479446,
        "lon": -131.0085126917711,
        "alt_km": 637.4456085137926,
        "timestamp": "2025-12-20T11:30:28.772711+00:00",
        "meta_object_name": "COSMOS 2251 DEB",
        "meta_object_id": "1993-036ASP",
        "meta_epoch": "2025-12-16T22:59:16.262304",
        "meta_mean_motion": 14.7878305,
        "meta_eccentricity": 0.00021826,
        "meta_inclination": 74.0414,
        "meta_ra_of_asc_node": 51.8941,
        "meta_arg_of_pericenter": 103.608,
        "meta_mean_anomaly": 69.9436,
        "meta_ephemeris_type": 0,
        "meta_classification_type": "U",
        "meta_norad_cat_id": 35793,
        "meta_element_set_no": 999,
        "meta_rev_at_epoch": 65859,
        "meta_bstar": 0.0012867323,
        "meta_mean_motion_dot": 9.439e-05,
        "meta_mean_motion_ddot": 0,
        "tle_line1": "1 35793U 93036ASP 25350.95782711  .00009439  00000+0  12867-2 0  9993",
        "tle_line2": "2 35793  74.0414  51.8941 0002182 103.6080  69.9436 14.78783050658591"
      },
      "geometry": {
        "type": "Point",
        "coordinates": [
          -131.0085126917711,
          -13.751603810479446
        ]
      }
    }
  ]
}